CCSDS_OMM_VERS = 2.0
CREATION_DATE  = 
ORIGINATOR     = 

OBJECT_NAME    = STARLINK-35437
OBJECT_ID      = 2025-268G
CENTER_NAME    = EARTH
REF_FRAME      = TEME
TIME_SYSTEM    = UTC
MEAN_ELEMENT_THEORY = SGP/SGP4

EPOCH          = 2025-11-29T06:00:02.000160
MEAN_MOTION    = 15.88005206
ECCENTRICITY   = .00019694
INCLINATION    = 42.9970
RA_OF_ASC_NODE = 201.8453
ARG_OF_PERICENTER = 269.5016
MEAN_ANOMALY   = 45.3092

EPHEMERIS_TYPE = 0
CLASSIFICATION_TYPE = U
NORAD_CAT_ID   = 66563
ELEMENT_SET_NO = 999
REV_AT_EPOCH   = 250
BSTAR          = -.58622672E-2
MEAN_MOTION_DOT = -.1435663E-1
MEAN_MOTION_DDOT = 0

CCSDS_OMM_VERS = 2.0
CREATION_DATE  = 
ORIGINATOR     = 

OBJECT_NAME    = STARLINK-35358
OBJECT_ID      = 2025-268H
CENTER_NAME    = EARTH
REF_FRAME      = TEME
TIME_SYSTEM    = UTC
MEAN_ELEMENT_THEORY = SGP/SGP4

EPOCH          = 2025-11-29T06:00:02.000160
MEAN_MOTION    = 15.88050455
ECCENTRICITY   = .00020851
INCLINATION    = 42.9970
RA_OF_ASC_NODE = 201.8411
ARG_OF_PERICENTER = 268.2134
MEAN_ANOMALY   = 48.3715

EPHEMERIS_TYPE = 0
CLASSIFICATION_TYPE = U
NORAD_CAT_ID   = 66564
ELEMENT_SET_NO = 999
REV_AT_EPOCH   = 245
BSTAR          = -.59073639E-2
MEAN_MOTION_DOT = -.1448193E-1
MEAN_MOTION_DDOT = 0

CCSDS_OMM_VERS = 2.0
CREATION_DATE  = 
ORIGINATOR     = 

OBJECT_NAME    = STARLINK-35893
OBJECT_ID      = 2025-268J
CENTER_NAME    = EARTH
REF_FRAME      = TEME
TIME_SYSTEM    = UTC
MEAN_ELEMENT_THEORY = SGP/SGP4

EPOCH          = 2025-11-29T06:00:02.000160
MEAN_MOTION    = 15.88090620
ECCENTRICITY   = .00019939
INCLINATION    = 42.9971
RA_OF_ASC_NODE = 201.8365
ARG_OF_PERICENTER = 269.3746
MEAN_ANOMALY   = 49.0385

EPHEMERIS_TYPE = 0
CLASSIFICATION_TYPE = U
NORAD_CAT_ID   = 66565
ELEMENT_SET_NO = 999
REV_AT_EPOCH   = 250
BSTAR          = -.59212997E-2
MEAN_MOTION_DOT = -.1453616E-1
MEAN_MOTION_DDOT = 0

CCSDS_OMM_VERS = 2.0
CREATION_DATE  = 
ORIGINATOR     = 

OBJECT_NAME    = STARLINK-35871
OBJECT_ID      = 2025-268K
CENTER_NAME    = EARTH
REF_FRAME      = TEME
TIME_SYSTEM    = UTC
MEAN_ELEMENT_THEORY = SGP/SGP4

EPOCH          = 2025-11-29T06:00:02.000160
MEAN_MOTION    = 15.88123813
ECCENTRICITY   = .00020024
INCLINATION    = 42.9973
RA_OF_ASC_NODE = 201.8308
ARG_OF_PERICENTER = 269.3220
MEAN_ANOMALY   = 51.3315

EPHEMERIS_TYPE = 0
CLASSIFICATION_TYPE = U
NORAD_CAT_ID   = 66566
ELEMENT_SET_NO = 999
REV_AT_EPOCH   = 250
BSTAR          = -.59486267E-2
MEAN_MOTION_DOT = -.1461538E-1
MEAN_MOTION_DDOT = 0

CCSDS_OMM_VERS = 2.0
CREATION_DATE  = 
ORIGINATOR     = 

OBJECT_NAME    = STARLINK-35825
OBJECT_ID      = 2025-268L
CENTER_NAME    = EARTH
REF_FRAME      = TEME
TIME_SYSTEM    = UTC
MEAN_ELEMENT_THEORY = SGP/SGP4

EPOCH          = 2025-11-29T06:00:02.000160
MEAN_MOTION    = 15.88161145
ECCENTRICITY   = .00020356
INCLINATION    = 42.9974
RA_OF_ASC_NODE = 201.8256
ARG_OF_PERICENTER = 268.4592
MEAN_ANOMALY   = 54.2636

EPHEMERIS_TYPE = 0
CLASSIFICATION_TYPE = U
NORAD_CAT_ID   = 66567
ELEMENT_SET_NO = 999
REV_AT_EPOCH   = 250
BSTAR          = -.59709326E-2
MEAN_MOTION_DOT = -.1468693E-1
MEAN_MOTION_DDOT = 0

CCSDS_OMM_VERS = 2.0
CREATION_DATE  = 
ORIGINATOR     = 

OBJECT_NAME    = STARLINK-35803
OBJECT_ID      = 2025-268M
CENTER_NAME    = EARTH
REF_FRAME      = TEME
TIME_SYSTEM    = UTC
MEAN_ELEMENT_THEORY = SGP/SGP4

EPOCH          = 2025-11-29T06:00:02.000160
MEAN_MOTION    = 15.88196649
ECCENTRICITY   = .00020264
INCLINATION    = 42.9973
RA_OF_ASC_NODE = 201.8202
ARG_OF_PERICENTER = 271.8457
MEAN_ANOMALY   = 53.0568

EPHEMERIS_TYPE = 0
CLASSIFICATION_TYPE = U
NORAD_CAT_ID   = 66568
ELEMENT_SET_NO = 999
REV_AT_EPOCH   = 250
BSTAR          = -.60053706E-2
MEAN_MOTION_DOT = -.1478276E-1
MEAN_MOTION_DDOT = 0

CCSDS_OMM_VERS = 2.0
CREATION_DATE  = 
ORIGINATOR     = 

OBJECT_NAME    = STARLINK-35835
OBJECT_ID      = 2025-268N
CENTER_NAME    = EARTH
REF_FRAME      = TEME
TIME_SYSTEM    = UTC
MEAN_ELEMENT_THEORY = SGP/SGP4

EPOCH          = 2025-11-29T06:00:02.000160
MEAN_MOTION    = 15.88238022
ECCENTRICITY   = .00019827
INCLINATION    = 42.9973
RA_OF_ASC_NODE = 201.8155
ARG_OF_PERICENTER = 270.3641
MEAN_ANOMALY   = 56.4172

EPHEMERIS_TYPE = 0
CLASSIFICATION_TYPE = U
NORAD_CAT_ID   = 66569
ELEMENT_SET_NO = 999
REV_AT_EPOCH   = 250
BSTAR          = -.60347042E-2
MEAN_MOTION_DOT = -.1487132E-1
MEAN_MOTION_DDOT = 0

CCSDS_OMM_VERS = 2.0
CREATION_DATE  = 
ORIGINATOR     = 

OBJECT_NAME    = STARLINK-35834
OBJECT_ID      = 2025-268P
CENTER_NAME    = EARTH
REF_FRAME      = TEME
TIME_SYSTEM    = UTC
MEAN_ELEMENT_THEORY = SGP/SGP4

EPOCH          = 2025-11-29T06:00:02.000160
MEAN_MOTION    = 15.88274412
ECCENTRICITY   = .00019774
INCLINATION    = 42.9975
RA_OF_ASC_NODE = 201.8100
ARG_OF_PERICENTER = 271.7502
MEAN_ANOMALY   = 57.2130

EPHEMERIS_TYPE = 0
CLASSIFICATION_TYPE = U
NORAD_CAT_ID   = 66570
ELEMENT_SET_NO = 999
REV_AT_EPOCH   = 250
BSTAR          = -.60740742E-2
MEAN_MOTION_DOT = -.1529513E-1
MEAN_MOTION_DDOT = 0

CCSDS_OMM_VERS = 2.0
CREATION_DATE  = 
ORIGINATOR     = 

OBJECT_NAME    = STARLINK-35836
OBJECT_ID      = 2025-268Q
CENTER_NAME    = EARTH
REF_FRAME      = TEME
TIME_SYSTEM    = UTC
MEAN_ELEMENT_THEORY = SGP/SGP4

EPOCH          = 2025-11-29T06:00:02.000160
MEAN_MOTION    = 15.88308511
ECCENTRICITY   = .00019643
INCLINATION    = 42.9973
RA_OF_ASC_NODE = 201.8046
ARG_OF_PERICENTER = 271.0010
MEAN_ANOMALY   = 60.1444

EPHEMERIS_TYPE = 0
CLASSIFICATION_TYPE = U
NORAD_CAT_ID   = 66571
ELEMENT_SET_NO = 999
REV_AT_EPOCH   = 250
BSTAR          = -.60912839E-2
MEAN_MOTION_DOT = -.153566E-1
MEAN_MOTION_DDOT = 0

CCSDS_OMM_VERS = 2.0
CREATION_DATE  = 
ORIGINATOR     = 

OBJECT_NAME    = STARLINK-35870
OBJECT_ID      = 2025-268R
CENTER_NAME    = EARTH
REF_FRAME      = TEME
TIME_SYSTEM    = UTC
MEAN_ELEMENT_THEORY = SGP/SGP4

EPOCH          = 2025-11-29T06:00:02.000160
MEAN_MOTION    = 15.88346927
ECCENTRICITY   = .00019538
INCLINATION    = 42.9978
RA_OF_ASC_NODE = 201.7993
ARG_OF_PERICENTER = 268.7625
MEAN_ANOMALY   = 64.6229

EPHEMERIS_TYPE = 0
CLASSIFICATION_TYPE = U
NORAD_CAT_ID   = 66572
ELEMENT_SET_NO = 999
REV_AT_EPOCH   = 250
BSTAR          = -.61417425E-2
MEAN_MOTION_DOT = -.1549507E-1
MEAN_MOTION_DDOT = 0

CCSDS_OMM_VERS = 2.0
CREATION_DATE  = 
ORIGINATOR     = 

OBJECT_NAME    = STARLINK-35650
OBJECT_ID      = 2025-268S
CENTER_NAME    = EARTH
REF_FRAME      = TEME
TIME_SYSTEM    = UTC
MEAN_ELEMENT_THEORY = SGP/SGP4

EPOCH          = 2025-11-29T06:00:02.000160
MEAN_MOTION    = 15.88387250
ECCENTRICITY   = .00019652
INCLINATION    = 42.9974
RA_OF_ASC_NODE = 201.7938
ARG_OF_PERICENTER = 267.9813
MEAN_ANOMALY   = 67.4506

EPHEMERIS_TYPE = 0
CLASSIFICATION_TYPE = U
NORAD_CAT_ID   = 66573
ELEMENT_SET_NO = 999
REV_AT_EPOCH   = 250
BSTAR          = -.61740831E-2
MEAN_MOTION_DOT = -.1559498E-1
MEAN_MOTION_DDOT = 0

CCSDS_OMM_VERS = 2.0
CREATION_DATE  = 
ORIGINATOR     = 

OBJECT_NAME    = STARLINK-35812
OBJECT_ID      = 2025-268T
CENTER_NAME    = EARTH
REF_FRAME      = TEME
TIME_SYSTEM    = UTC
MEAN_ELEMENT_THEORY = SGP/SGP4

EPOCH          = 2025-11-29T06:00:02.000160
MEAN_MOTION    = 15.88427252
ECCENTRICITY   = .00020287
INCLINATION    = 42.9977
RA_OF_ASC_NODE = 201.7894
ARG_OF_PERICENTER = 270.0525
MEAN_ANOMALY   = 67.1475

EPHEMERIS_TYPE = 0
CLASSIFICATION_TYPE = U
NORAD_CAT_ID   = 66574
ELEMENT_SET_NO = 999
REV_AT_EPOCH   = 250
BSTAR          = -.61686378E-2
MEAN_MOTION_DOT = -.1561128E-1
MEAN_MOTION_DDOT = 0

CCSDS_OMM_VERS = 2.0
CREATION_DATE  = 
ORIGINATOR     = 

OBJECT_NAME    = STARLINK-35810
OBJECT_ID      = 2025-268U
CENTER_NAME    = EARTH
REF_FRAME      = TEME
TIME_SYSTEM    = UTC
MEAN_ELEMENT_THEORY = SGP/SGP4

EPOCH          = 2025-11-29T06:00:02.000160
MEAN_MOTION    = 15.88463809
ECCENTRICITY   = .00020211
INCLINATION    = 42.9976
RA_OF_ASC_NODE = 201.7839
ARG_OF_PERICENTER = 268.6068
MEAN_ANOMALY   = 70.7718

EPHEMERIS_TYPE = 0
CLASSIFICATION_TYPE = U
NORAD_CAT_ID   = 66575
ELEMENT_SET_NO = 999
REV_AT_EPOCH   = 250
BSTAR          = -.61956967E-2
MEAN_MOTION_DOT = -.1569696E-1
MEAN_MOTION_DDOT = 0

CCSDS_OMM_VERS = 2.0
CREATION_DATE  = 
ORIGINATOR     = 

OBJECT_NAME    = STARLINK-35814
OBJECT_ID      = 2025-268V
CENTER_NAME    = EARTH
REF_FRAME      = TEME
TIME_SYSTEM    = UTC
MEAN_ELEMENT_THEORY = SGP/SGP4

EPOCH          = 2025-11-29T06:00:02.000160
MEAN_MOTION    = 15.88497850
ECCENTRICITY   = .00019948
INCLINATION    = 42.9976
RA_OF_ASC_NODE = 201.7785
ARG_OF_PERICENTER = 271.8405
MEAN_ANOMALY   = 69.6517

EPHEMERIS_TYPE = 0
CLASSIFICATION_TYPE = U
NORAD_CAT_ID   = 66576
ELEMENT_SET_NO = 999
REV_AT_EPOCH   = 250
BSTAR          = -.61772024E-2
MEAN_MOTION_DOT = -.1567932E-1
MEAN_MOTION_DDOT = 0

CCSDS_OMM_VERS = 2.0
CREATION_DATE  = 
ORIGINATOR     = 

OBJECT_NAME    = STARLINK-35815
OBJECT_ID      = 2025-268W
CENTER_NAME    = EARTH
REF_FRAME      = TEME
TIME_SYSTEM    = UTC
MEAN_ELEMENT_THEORY = SGP/SGP4

EPOCH          = 2025-11-29T06:00:02.000160
MEAN_MOTION    = 15.88539625
ECCENTRICITY   = .00020515
INCLINATION    = 42.9976
RA_OF_ASC_NODE = 201.7731
ARG_OF_PERICENTER = 269.7781
MEAN_ANOMALY   = 73.8874

EPHEMERIS_TYPE = 0
CLASSIFICATION_TYPE = U
NORAD_CAT_ID   = 66577
ELEMENT_SET_NO = 999
REV_AT_EPOCH   = 250
BSTAR          = -.62478227E-2
MEAN_MOTION_DOT = -.1586666E-1
MEAN_MOTION_DDOT = 0

